[{"OBJECT_NAME":"STARLINK-30531","OBJECT_ID":"2023-153H","EPOCH":"2026-03-09T22:00:01.999584","MEAN_MOTION":15.26715608,"ECCENTRICITY":0.0001474,"INCLINATION":43.002,"RA_OF_ASC_NODE":65.5385,"ARG_OF_PERICENTER":254.8482,"MEAN_ANOMALY":110.8835,"EPHEMERIS_TYPE":0,"CLASSIFICATION_TYPE":"U","NORAD_CAT_ID":57998,"ELEMENT_SET_NO":999,"REV_AT_EPOCH":552,"BSTAR":0.0018462097,"MEAN_MOTION_DOT":0.00049559,"MEAN_MOTION_DDOT":0},{"OBJECT_NAME":"FLOCK 4G-24","OBJECT_ID":"2025-009AE","EPOCH":"2026-03-09T17:24:07.838208","MEAN_MOTION":15.27784978,"ECCENTRICITY":0.0001802,"INCLINATION":97.4061,"RA_OF_ASC_NODE":151.514,"ARG_OF_PERICENTER":280.2808,"MEAN_ANOMALY":79.8228,"EPHEMERIS_TYPE":0,"CLASSIFICATION_TYPE":"U","NORAD_CAT_ID":62637,"ELEMENT_SET_NO":999,"REV_AT_EPOCH":6373,"BSTAR":0.00038996067,"MEAN_MOTION_DOT":0.00010513,"MEAN_MOTION_DDOT":0}]
